*******************************************************************************
Ephemeris / PORT_LOGIN Sat Nov 26 22:38:49 2011 Pasadena, USA    / Horizons    
*******************************************************************************
Target body name: Jupiter (599)                   {source: JUP230}
Center body name: Solar System Barycenter (0)     {source: DE405}
Center-site name: BODY CENTER
*******************************************************************************
Start time      : A.D. 2001-Jan-01 10:00:00.0000 CT 
Stop  time      : A.D. 2001-Jan-02 00:00:00.0000 CT 
Step-size       : 60 minutes
*******************************************************************************
Center geodetic : 0.00000000,0.00000000,0.0000000 {E-lon(deg),Lat(deg),Alt(km)}
Center cylindric: 0.00000000,0.00000000,0.0000000 {E-lon(deg),Dxy(km),Dz(km)}
Center radii    : (undefined)                                                  
Output units    : AU-D                                                         
Output format   : 03
Reference frame : ICRF/J2000.0                                                 
Output type     : GEOMETRIC cartesian states
Coordinate systm: Earth Mean Equator and Equinox of Reference Epoch            
*******************************************************************************
JDCT 
   X     Y     Z
   VX    VY    VZ
   LT    RG    RR
*******************************************************************************
$$SOE
2451910.916666667 = A.D. 2001-Jan-01 10:00:00.0000 (CT)
   1.789145781099054E+00  4.346209975643592E+00  1.819370382164962E+00
  -7.148351881409551E-03  2.728667267421638E-03  1.343627982884183E-03
   2.910809233867473E-02  5.039909956130912E+00  3.004962900795273E-04
2451910.958333333 = A.D. 2001-Jan-01 11:00:00.0000 (CT)
   1.788847930511565E+00  4.346323660108078E+00  1.819426362418343E+00
  -7.148475038327957E-03  2.728188130619392E-03  1.343424725362510E-03
   2.910816464802907E-02  5.039922476107508E+00  3.004641859351123E-04
2451911.000000000 = A.D. 2001-Jan-01 12:00:00.0000 (CT)
   1.788550074944260E+00  4.346437324752415E+00  1.819482334273640E+00
  -7.148591114575054E-03  2.727716040127301E-03  1.343224937973220E-03
   2.910823695083121E-02  5.039934994949628E+00  3.004419067967135E-04
2451911.041666667 = A.D. 2001-Jan-01 13:00:00.0000 (CT)
   1.788252214666108E+00  4.346550969886550E+00  1.819538297882783E+00
  -7.148701379513375E-03  2.727251753000840E-03  1.343028959590275E-03
   2.910830924948876E-02  5.039947513074132E+00  3.004297765882394E-04
2451911.083333333 = A.D. 2001-Jan-01 14:00:00.0000 (CT)
   1.787954349891068E+00  4.346664595848401E+00  1.819594253410087E+00
  -7.148807199438598E-03  2.726795852622212E-03  1.342837044824510E-03
   2.910838154646152E-02  5.039960030906927E+00  3.004279051170953E-04
2451911.125000000 = A.D. 2001-Jan-01 15:00:00.0000 (CT)
   1.787656480774668E+00  4.346778202996369E+00  1.819650201028630E+00
  -7.148910007653344E-03  2.726348737062053E-03  1.342649358980005E-03
   2.910845384420986E-02  5.039972548874005E+00  3.004361868377334E-04
2451911.166666667 = A.D. 2001-Jan-01 16:00:00.0000 (CT)
   1.787358607411857E+00  4.346891791701439E+00  1.819706140916458E+00
  -7.149011273307792E-03  2.725910611287184E-03  1.342465974861298E-03
   2.910852614514307E-02  5.039985067392528E+00  3.004543040233571E-04
2451911.208333333 = A.D. 2001-Jan-01 17:00:00.0000 (CT)
   1.787060729836175E+00  4.347005362339038E+00  1.819762073252700E+00
  -7.149112469667590E-03  2.725481483405779E-03  1.342286871511639E-03
   2.910859845156915E-02  5.039997586862112E+00  3.004817343058280E-04
2451911.250000000 = A.D. 2001-Jan-01 18:00:00.0000 (CT)
   1.786762848020240E+00  4.347118915280833E+00  1.819817998213665E+00
  -7.149215042476882E-03  2.725061165066164E-03  1.342111934926580E-03
   2.910867076564694E-02  5.040010107656551E+00  3.005177624638173E-04
2451911.291666667 = A.D. 2001-Jan-01 19:00:00.0000 (CT)
   1.786464961877542E+00  4.347232450886620E+00  1.819873915969017E+00
  -7.149320379077282E-03  2.724649276046274E-03  1.341940960749674E-03
   2.910874308934151E-02  5.040022630116081E+00  3.005614962602487E-04
2451911.333333333 = A.D. 2001-Jan-01 20:00:00.0000 (CT)
   1.786167071265496E+00  4.347345969496499E+00  1.819929826678102E+00
  -7.149429778922152E-03  2.724245252988670E-03  1.341773658918227E-03
   2.910881542438382E-02  5.040035154540412E+00  3.006118860532057E-04
2451911.375000000 = A.D. 2001-Jan-01 21:00:00.0000 (CT)
   1.785869175989687E+00  4.347459471423498E+00  1.819985730486503E+00
  -7.149544426090055E-03  2.723848362152103E-03  1.341609660187801E-03
   2.910888777223560E-02  5.040047681182634E+00  3.006677478308098E-04
2451911.416666667 = A.D. 2001-Jan-01 22:00:00.0000 (CT)
   1.785571275809203E+00  4.347572956946806E+00  1.820041627522909E+00
  -7.149665364352430E-03  2.723457715966203E-03  1.341448524424688E-03
   2.910896013406008E-02  5.040060210244153E+00  3.007277892511184E-04
2451911.458333333 = A.D. 2001-Jan-01 23:00:00.0000 (CT)
   1.785273370442954E+00  4.347686426305760E+00  1.820097517896365E+00
  -7.149793475289294E-03  2.723072293092289E-03  1.341289750516880E-03
   2.910903251069924E-02  5.040072741870755E+00  3.007906382039226E-04
2451911.500000000 = A.D. 2001-Jan-02 00:00:00.0000 (CT)
   1.784975459576816E+00  4.347799879694761E+00  1.820153401693957E+00
  -7.149929459874742E-03  2.722690961612062E-03  1.341132787716529E-03
   2.910910490265838E-02  5.040085276149931E+00  3.008548733534631E-04
$$EOE
*******************************************************************************
Coordinate system description:

  Earth Mean Equator and Equinox of Reference Epoch

    Reference epoch: J2000.0
    xy-plane: plane of the Earth's mean equator at the reference epoch
    x-axis  : out along ascending node of instantaneous plane of the Earth's
              orbit and the Earth's mean equator at the reference epoch
    z-axis  : along the Earth mean north pole at the reference epoch

Symbol meaning [1 AU=149597870.691 km, 1 day=86400.0 s]:

    JDCT     Epoch Julian Date, Coordinate Time
      X      x-component of position vector (AU)                               
      Y      y-component of position vector (AU)                               
      Z      z-component of position vector (AU)                               
      VX     x-component of velocity vector (AU/day)                           
      VY     y-component of velocity vector (AU/day)                           
      VZ     z-component of velocity vector (AU/day)                           
      LT     One-way down-leg Newtonian light-time (day)                       
      RG     Range; distance from coordinate center (AU)                       
      RR     Range-rate; radial velocity wrt coord. center (AU/day)            

Geometric states/elements have no aberration corrections applied.

 Computations by ...
     Solar System Dynamics Group, Horizons On-Line Ephemeris System
     4800 Oak Grove Drive, Jet Propulsion Laboratory
     Pasadena, CA  91109   USA
     Information: http://ssd.jpl.nasa.gov/
     Connect    : telnet://ssd.jpl.nasa.gov:6775  (via browser)
                  telnet ssd.jpl.nasa.gov 6775    (via command-line)
     Author     : Jon.Giorgini@jpl.nasa.gov
*******************************************************************************
